STARLINK-1551
1 16075C 20055BA  21326.13339028 -.00000818  00000-0 -54826-4 0  3269
2 16075  53.0525 298.1531 0001820  63.9201  42.2215 15.06389675    12
